H1 CPF  1  HTS 2022 12  2 12  8361 larets           NONE
H2  0304206 5557    27944 2022 12 02  0  0  0 2022 12 07  0  0  0   180 1 1  0 0 0
H5  0.0560 
H9 
10 0 59915  72360.00000  0    -527384.833   -5034114.399   -4937412.410
10 0 59915  72540.00000  0    -741763.224   -3993674.747   -5790220.021
10 0 59915  72720.00000  0    -900086.624   -2804129.387   -6432431.852
10 0 59915  72900.00000  0    -993365.475   -1510195.596   -6841086.246
10 0 59915  73080.00000  0   -1016177.145    -160364.372   -7001654.387
10 0 59915  73260.00000  0    -966919.962    1194892.272   -6908488.279
10 0 59915  73440.00000  0    -847890.114    2504957.165   -6564983.396
10 0 59915  73620.00000  0    -665182.365    3720900.490   -5983463.361
10 0 59915  73800.00000  0    -428415.995    4797267.861   -5184786.523
10 0 59915  73980.00000  0    -150292.902    5693770.384   -4197669.867
10 0 59915  74160.00000  0     153997.011    6376821.038   -3057734.510
10 0 59915  74340.00000  0     467504.311    6820851.637   -1806285.302
10 0 59915  74520.00000  0     772353.499    7009348.688    -488853.834
10 0 59915  74700.00000  0    1050644.623    6935547.215     846453.459
10 0 59915  74880.00000  0    1285377.579    6602732.378    2150737.813
10 0 59915  75060.00000  0    1461345.852    6024126.356    3376140.293
10 0 59915  75240.00000  0    1565955.103    5222366.704    4477643.913
10 0 59915  75420.00000  0    1589926.344    4228593.425    5414769.687
10 0 59915  75600.00000  0    1527840.582    3081186.161    6153085.687
10 0 59915  75780.00000  0    1378501.866    1824232.696    6665464.704
10 0 59915  75960.00000  0    1145104.093     505795.659    6933068.264
10 0 59915  76140.00000  0     835193.276    -823953.211    6946020.735
10 0 59915  76320.00000  0     460426.024   -2114657.301    6703769.479
10 0 59915  76500.00000  0      36128.636   -3317702.899    6215118.688
10 0 59915  76680.00000  0    -419327.539   -4388078.670    5497925.031
10 0 59915  76860.00000  0    -885307.201   -5286092.222    4578468.818
10 0 59915  77040.00000  0   -1339825.603   -5978898.541    3490522.867
10 0 59915  77220.00000  0   -1760562.263   -6441772.042    2274115.928
10 0 59915  77400.00000  0   -2125922.600   -6659047.838     974037.724
10 0 59915  77580.00000  0   -2416094.444   -6624686.682    -361858.181
10 0 59915  77760.00000  0   -2614037.367   -6342428.644   -1684480.195
10 0 59915  77940.00000  0   -2706355.478   -5825530.606   -2945364.702
10 0 59915  78120.00000  0   -2684009.746   -5096105.812   -4098497.257
10 0 59915  78300.00000  0   -2542832.095   -4184106.154   -5102003.980
10 0 59915  78480.00000  0   -2283821.582   -3126017.736   -5919640.968
10 0 59915  78660.00000  0   -1913218.640   -1963345.901   -6522040.431
10 0 59915  78840.00000  0   -1442357.309    -740958.897   -6887684.349
10 0 59915  79020.00000  0    -887308.480     494637.872   -7003587.056
10 0 59915  79200.00000  0    -268332.079    1697032.800   -6865690.868
10 0 59915  79380.00000  0     390846.304    2821597.349   -6478981.725
10 0 59915  79560.00000  0    1063915.485    3827095.611   -5857328.098
10 0 59915  79740.00000  0    1722996.436    4677172.263   -5023035.321
10 0 59915  79920.00000  0    2339763.688    5341671.641   -4006119.829
10 0 59915  80100.00000  0    2886635.290    5797745.145   -2843305.885
10 0 59915  80280.00000  0    3337984.256    6030695.529   -1576761.530
10 0 59915  80460.00000  0    3671319.094    6034514.721    -252602.308
10 0 59915  80640.00000  0    3868369.256    5812075.336    1080790.389
10 0 59915  80820.00000  0    3916017.079    5374955.605    2374564.821
10 0 59915  81000.00000  0    3807026.839    4742904.556    3581231.420
10 0 59915  81180.00000  0    3540526.492    3942964.703    4656455.184
10 0 59915  81360.00000  0    3122216.370    3008299.248    5560720.634
10 0 59915  81540.00000  0    2564286.924    1976785.128    6260802.152
10 0 59915  81720.00000  0    1885064.340     889443.552    6730976.520
10 0 59915  81900.00000  0    1108395.629    -211218.056    6953951.458
10 0 59915  82080.00000  0     262796.744   -1282881.654    6921486.720
10 0 59915  82260.00000  0    -619605.636   -2285060.881    6634697.328
10 0 59915  82440.00000  0   -1504305.207   -3180649.481    6104022.091
10 0 59915  82620.00000  0   -2355769.883   -3937316.801    5348861.572
10 0 59915  82800.00000  0   -3138880.699   -4528709.578    4396903.936
10 0 59915  82980.00000  0   -3820410.568   -4935416.096    3283132.502
10 0 59915  83160.00000  0   -4370461.909   -5145641.066    2048535.995
10 0 59915  83340.00000  0   -4763795.195   -5155560.974     738574.156
10 0 59915  83520.00000  0   -4980986.085   -4969338.023    -598545.572
10 0 59915  83700.00000  0   -5009346.772   -4598789.543   -1913705.851
10 0 59915  83880.00000  0   -4843558.715   -4062728.947   -3158748.138
10 0 59915  84060.00000  0   -4485983.772   -3386017.441   -4288275.870
10 0 59915  84240.00000  0   -3946650.604   -2598391.519   -5261311.421
10 0 59915  84420.00000  0   -3242928.075   -1733132.052   -6042747.212
10 0 59915  84600.00000  0   -2398911.855    -825643.855   -6604545.119
10 0 59915  84780.00000  0   -1444558.560      87989.315   -6926658.244
10 0 59915  84960.00000  0    -414608.206     972413.511   -6997660.233
10 0 59915  85140.00000  0     652660.460    1794331.249   -6815091.432
10 0 59915  85320.00000  0    1716811.725    2523713.892   -6385528.639
10 0 59915  85500.00000  0    2736742.992    3134871.942   -5724374.225
10 0 59915  85680.00000  0    3672236.585    3607350.377   -4855357.998
10 0 59915  85860.00000  0    4485526.641    3926623.158   -3809762.977
10 0 59915  86040.00000  0    5142832.766    4084562.910   -2625376.138
10 0 59915  86220.00000  0    5615790.672    4079657.590   -1345178.634
10 0 59916      0.00000  0    5882710.691    3916959.072     -15812.823
10 0 59916    180.00000  0    5929597.581    3607757.599    1314121.618
10 0 59916    360.00000  0    5750873.248    3168990.495    2595875.986
10 0 59916    540.00000  0    5349753.393    2622410.870    3782387.125
10 0 59916    720.00000  0    4738252.413    1993557.929    4830054.469
10 0 59916    900.00000  0    3936816.523    1310582.078    5700372.436
10 0 59916   1080.00000  0    2973609.868     602989.219    6361360.440
10 0 59916   1260.00000  0    1883480.553     -99637.542    6788728.591
10 0 59916   1440.00000  0     706669.953    -768875.333    6966751.742
10 0 59916   1620.00000  0    -512696.425   -1378616.361    6888838.363
10 0 59916   1800.00000  0   -1728281.669   -1906095.775    6557769.330
10 0 59916   1980.00000  0   -2893309.646   -2332752.922    5985605.540
10 0 59916   2160.00000  0   -3962381.094   -2644897.851    5193279.138
10 0 59916   2340.00000  0   -4893285.146   -2834167.650    4209859.498
10 0 59916   2520.00000  0   -5648717.644   -2897744.699    3071498.281
10 0 59916   2700.00000  0   -6197830.489   -2838326.338    1820097.389
10 0 59916   2880.00000  0   -6517544.475   -2663851.845     501738.623
10 0 59916   3060.00000  0   -6593548.385   -2386992.296    -835069.560
10 0 59916   3240.00000  0   -6420928.979   -2024429.473   -2141243.300
10 0 59916   3420.00000  0   -6004395.208   -1595966.063   -3368985.810
10 0 59916   3600.00000  0   -5358096.040   -1123519.821   -4473568.166
10 0 59916   3780.00000  0   -4505055.467    -630057.073   -5414955.718
10 0 59916   3960.00000  0   -3476263.059    -138520.249   -6159218.953
10 0 59916   4140.00000  0   -2309474.644     329197.454   -6679682.610
10 0 59916   4320.00000  0   -1047789.228     753184.653   -6957792.659
10 0 59916   4500.00000  0     261940.306    1116318.829   -6983697.009
10 0 59916   4680.00000  0    1570807.174    1404926.669   -6756542.536
10 0 59916   4860.00000  0    2829624.163    1609280.457   -6284498.277
10 0 59916   5040.00000  0    3990726.267    1723918.925   -5584489.880
10 0 59916   5220.00000  0    5009743.582    1747780.884   -4681651.737
10 0 59916   5400.00000  0    5847298.246    1684150.243   -3608503.532
10 0 59916   5580.00000  0    6470560.869    1540410.284   -2403852.645
10 0 59916   5760.00000  0    6854600.211    1327613.644   -1111446.634
10 0 59916   5940.00000  0    6983455.821    1059882.616     221594.940
10 0 59916   6120.00000  0    6850863.834     753663.926    1546510.947
10 0 59916   6300.00000  0    6460595.084     426875.553    2814716.798
10 0 59916   6480.00000  0    5826376.413      97985.044    3979636.745
10 0 59916   6660.00000  0    4971392.030    -214929.141    4998458.860
10 0 59916   6840.00000  0    3927397.279    -495082.215    5833736.908
10 0 59916   7020.00000  0    2733486.258    -727811.114    6454775.503
10 0 59916   7200.00000  0    1434580.100    -901282.075    6838747.413
10 0 59916   7380.00000  0      79700.712   -1007051.471    6971518.771
10 0 59916   7560.00000  0   -1279907.086   -1040455.925    6848155.248
10 0 59916   7740.00000  0   -2592729.432   -1000816.173    6473100.543
10 0 59916   7920.00000  0   -3808949.027    -891445.473    5860031.094
10 0 59916   8100.00000  0   -4882366.626    -719463.881    5031389.908
10 0 59916   8280.00000  0   -5772210.477    -495426.485    4017592.647
10 0 59916   8460.00000  0   -6444749.455    -232777.195    2855921.097
10 0 59916   8640.00000  0   -6874637.704      52848.291    1589144.395
10 0 59916   8820.00000  0   -7045929.925     344437.633     263910.132
10 0 59916   9000.00000  0   -6952703.372     624491.059   -1071033.063
10 0 59916   9180.00000  0   -6599249.514     875938.457   -2366694.990
10 0 59916   9360.00000  0   -5999834.978    1083033.528   -3575693.866
10 0 59916   9540.00000  0   -5178050.049    1232179.668   -4654021.724
10 0 59916   9720.00000  0   -4165782.645    1312642.996   -5562636.951
10 0 59916   9900.00000  0   -3001894.184    1317120.045   -6268826.503
10 0 59916  10080.00000  0   -1730671.084    1242137.590   -6747305.123
10 0 59916  10260.00000  0    -400120.361    1088275.033   -6981033.193
99
